#dP2023  7 16  0  0  0.00000000      96 __u+U IGS14 FIT  IAC
## 2271      0.00000000   900.00000000 60141 0.0000000000000
+  118   C06C07C08C09C10C11C12C13C14C16C19C20C21C22C23C24C25
+        C26C27C28C29C30C32C33C34C35C36C37C38C39C40C41C42C43
+        C44C45C46E02E03E04E05E07E08E09E10E11E12E13E14E15E18
+        E19E21E24E25E26E27E30E31E34E36G01G02G03G04G05G06G07
+        G08G09G10G11G12G13G14G15G16G17G18G19G20G21G22G23G24
+        G25G26G27G28G29G30G31G32J02J03J04R01R02R03R04R05R07
+        R08R09R11R12R13R14R15R16R17R18R19R20R21R22R24R25  0
++         7  8  7  7  8  7  7  7 10  7  6  6  6  6  6  6  6
++         6  6  6  6  6  6  6  6  6  6  6  6  6  7  6  6  6
++         6  6  6  4  4  4  4  5  5  4  4  4  4  5  4  5  5
++         5  4  5  5  5  5  4  4  4  4  3  3  3  4  4  4  4
++         4  4  3  4  3  4  3  4  4  4  4  4  4  3  4  3  3
++         3  4  4  3  4  5  3  4  9  9  9  8  7  6  6  6  7
++         7  7  7  7  8  7  7  7  7  7  8  8  7  7  7  8  0
%c M  cc GPS ccc cccc cccc cccc cccc ccccc ccccc ccccc ccccc
%c cc cc ccc ccc cccc cccc cccc cccc ccccc ccccc ccccc ccccc
%f  1.2500000  1.025000000  0.00000000000  0.000000000000000
%f  0.0000000  0.000000000  0.00000000000  0.000000000000000
%i    0    0    0    0      0      0      0      0         0
%i    0    0    0    0      0      0      0      0         0
/* INFORMATION & ANALYSIS CENTER (IAC)            FINAL DATA
/* S/V CLOCKS ARE ALIGNED TO GNSS TIME                      
/* G:C1WC2W R:C1PC2P E:C1XC5X C:C2IC6I J:C1CC2S             
/* PCV:IGS20_2247 OL/AL:FES2004  NONE     YN ORB:CoN CLK:CoN
*  2023 07 16  7 45  0.00000000
PC06 -17515.573766  37737.316047  -7670.783313    326.590376
PC07  -1585.992298  34097.894187 -24536.151666   -330.331896
PC08 -11172.577828  19726.455810  35489.322955    426.351003
PC09 -11405.389265  37076.796747 -16761.508277    410.462182
PC10   3967.830043  36002.245993 -20805.552135   -115.991202
PC11  16842.677029 -16231.255646  15302.125372    728.731644
PC12  15036.064105   3734.663528  23242.836830    792.135492
PC13  -3263.929167  21969.267068  35952.786126    316.414349
PC14  15112.647007  -6216.751192 -22601.336118     66.318681
PC16 -18084.197141  37606.409643  -6795.101913      3.975194
PC19  -7599.451956  14540.539897  22589.858585   -940.536102
PC20 -19501.382807  -1633.925700  19915.702689    432.207570
PC21  20548.631417  18198.708833  -4933.476096   -935.457762
PC22   9303.381520  23210.863564  12348.901775   -394.125810
PC23    112.110360 -16577.392331  22460.337150   -941.757255
PC24  27553.303785  -3445.866514  -2895.200842    178.218120
PC25  18537.101427 -14964.602096  14542.297520    168.983019
PC26  20365.269888   8138.785470 -17285.263673   -149.454870
PC27 -11670.662229 -12846.256245 -21873.393646    170.315217
PC28     84.655329 -25306.699541 -11768.348760    126.969729
PC29 -12449.733267  23938.324296  -7123.553233    147.922956
PC30 -17298.100865   7102.960765 -20729.437322     -2.282185
PC32 -20693.699664 -18098.010716   4861.994090   -538.763610
PC33   7572.159720 -14559.726036 -22573.570312   -914.604506
PC34  17353.279298  -8557.400149  20088.613044    215.876684
PC35    559.276904  25491.843284  11364.588685    587.552474
PC36 -19517.278416  14228.746641 -13943.541333   -326.804762
PC37 -19314.653383  -9225.858639  17912.726880   -793.849855
PC38 -19456.310215  20588.665393  31186.936518     91.893088
PC39 -20045.377323  37239.052351    159.194733     -3.840848
PC40  -5640.279191  30049.832308 -28892.629285    -29.592647
PC41  -8854.721223 -23110.135581 -12858.538905   -902.093569
PC42  20072.588416   2933.592040 -19110.841828   -610.627842
PC43  12934.043980 -23431.622271   7859.830701     30.925083
PC44  12141.007488  12667.349490  21688.598788    170.185999
PC45    464.394471  16364.089189 -22590.996998     -2.411058
PC46 -27499.187029   4368.153497   1549.893655    -69.253504
PE02 -25476.451477   1257.040127 -15008.268576     50.046940
PE03 -15670.693594   7794.343185  23868.773515    -36.501452
PE04   5796.155413 -25383.201641 -14078.098106   -167.793124
PE05 -16491.998998 -14570.187146  19804.423809      0.049485
PE07   7451.041347  28376.996467  -3862.668264    -60.303536
PE08  -5939.753333  25132.483820  14453.871206   -115.181800
PE09  -7379.839636 -28431.917487   3735.229510    -86.357883
PE10   8591.734414 -22016.784255 -17840.913508   -548.879690
PE11  -1868.372043 -18066.505855 -23387.581502   2497.273876
PE12  16788.048422 -22214.326806 -10035.358627   -620.175321
PE13   1092.337565  18402.082468  23154.778004    -19.325597
PE14 -20099.427511  -5481.222238 -23389.131312    283.638860
PE15 -17060.472535  22162.176764   9693.754867    -37.484383
PE18  14752.451435 -10745.807602  18333.141171    301.673173
PE19  16252.080526  -4788.244427 -24263.242643  -2065.627149
PE21  27066.500401  11800.993026  -2048.572836   -541.005727
PE24 -12284.955603 -18897.854892  19169.334547   -212.232410
PE25 -26945.042294 -12017.759286   2406.431020   -608.368452
PE26  18951.779326   3401.145124  22479.267992    164.448976
PE27  13045.492613  18777.974003 -18793.738138   -100.422796
PE30  -9093.745901  14407.479532 -24209.500249   -339.551578
PE31   8510.081994 -14625.551528  24297.515512     -0.497710
PE34 -24958.622520  12940.172219  -9256.907865    -56.343596
PE36 -18364.391921  -3925.630811 -22886.447368    -86.663746
PG01  10313.203561 -19666.658805 -14646.033753    172.785468
PG02  14830.181954 -20456.891160  -7416.699861   -575.655390
PG03     30.141114 -15663.491539 -21608.431843   -230.470163
PG04    834.339646 -26018.983839  -4934.226367     97.190927
PG05 -16709.976457   7899.544565  18935.026934   -135.080964
PG06 -20085.765119    906.214427 -17345.590970    577.443141
PG07  -5870.424377 -14948.431698  21564.712535    123.700969
PG08   7552.840735 -20136.090400  15250.319434   -132.431653
PG09  -7078.183470 -25193.821551   4323.345975   -110.997266
PG10  24149.160508  11321.821491   2007.259079    -45.352224
PG11 -23143.424696  12056.904355  -4807.702048   -278.152259
PG12  -4855.089675  14562.769762 -21953.953846   -401.283997
PG13 -13028.564542  12911.394788  18946.929592    547.750328
PG14 -22443.938403 -13618.937764   4588.807936    123.839034
PG15  -4761.040301  21548.015417  14129.171971     58.484819
PG16  20438.951373  -2476.650032  16719.181427   -480.190432
PG17 -13080.885794 -14328.318794 -17658.154308    721.042226
PG18   7779.415506  12793.049218  21929.771705   -347.341774
PG19 -14722.739270  -6743.025515 -21327.684836    344.551994
PG20 -23592.645488   3235.506902  11597.660878    422.416483
PG21  16378.717937 -19607.819246  -4738.935951    152.092976
PG22  14988.625040   2648.787103 -21327.368129    513.455179
PG23  16857.693203  15884.309160  13147.453919     43.814586
PG24 -12249.246987  21312.652585  -9859.336638   -259.379738
PG25   9551.855837  17515.109887 -17974.356424    456.409412
PG26  25642.469942   3225.237794   6744.908805    236.310599
PG27  13291.486174  -8890.971236  20879.360498     -4.070082
PG28  19253.953302    635.345047 -18303.890802     82.349986
PG29   3796.013457  26012.972657   3343.235004   -605.614586
PG30 -14687.170798  -8084.914637  20770.286178   -503.914412
PG31  23410.510302  -8414.363132 -10058.002078   -220.140903
PG32  14923.687144  11150.337782 -18826.054969   -522.080952
PJ02 -28141.372882  14793.423477 -23091.564104     -1.428055
PJ03 -25847.086004  32794.250485   -787.223618     -0.118225
PJ04 -25221.760952  27105.328166  26178.905284     96.943969
PR01  -5458.826354  11187.817057  22262.309604     61.486175
PR02   6938.889332  21965.622396  11069.055568    -22.605411
PR03  15187.336512  19544.673295  -6241.741030     81.606799
PR04  14602.505184   6615.591591 -19817.283862    195.127788
PR05   6321.419683  -9953.490988 -22605.812183    115.841092
PR07 -15366.201729 -19029.213525   7195.574238     60.283503
PR08 -14676.401754  -6200.232293  19967.960215    -71.668702
PR09   -535.326160 -11329.699800  22869.774041    131.440054
PR11 -25449.318690    -65.305060   1889.422434   -105.737099
PR12 -18052.908402   8142.994664 -16038.807503     29.141466
PR13  -1936.369797  11087.847213 -22897.764883    -37.146900
PR14  17990.726261   7444.842450 -16448.380610     24.967053
PR15  25495.636566   -353.082570   -501.791378     87.798852
PR16  18201.645673  -8098.925118  15922.212025     16.708542
PR17   5745.612425  10659.115587  22445.443328      0.239793
PR18  13868.872206  -5450.277156  20698.461976     91.816953
PR19  15788.314363 -17594.019083   9590.096430   -239.997485
PR20   7540.836089 -21668.192181 -11109.836269    -96.675126
PR21  -6350.935067  -9607.443577 -22769.366211    -23.080570
PR22 -14679.969211   5794.697064 -20020.515180     95.948555
PR24  -6168.480449  21876.985898  11565.940942    -16.728652
PR25  -5418.437537 -11196.644511 -22272.453704     47.062454
EOF
